SL-8 R/B                
1 11574U 79089B   26090.17747360  .00000454  00000+0  14519-3 0  9998
2 11574  74.0692  51.2636 0016682 221.1138 138.8763 14.42364855439208
SL-14 R/B               
1 11672U 80005B   26090.27108351  .00000781  00000+0  76291-4 0  9998
2 11672  82.5109 286.7592 0017256  91.4015 268.9181 14.90955515479700
SL-8 R/B                
1 12139U 81003B   26089.98812191  .00028699  00000+0  71678-3 0  9997
2 12139  82.9324 270.3139 0260582 104.5804 258.4479 15.11933702317895
SL-3 R/B                
1 12465U 81046B   26090.25991387  .00014217  00000+0  32496-3 0  9999
2 12465  81.2280 263.8273 0018152 305.6723  54.2830 15.42529951441751
SL-3 R/B                
1 12904U 81103B   26090.27741582  .00007424  00000+0  32685-3 0  9995
2 12904  81.1614 188.1083 0012903 209.2567 150.7944 15.21635505976515
SL-3 R/B                
1 13068U 82013B   26090.21113378  .00005332  00000+0  22929-3 0  9994
2 13068  81.1731 135.5435 0023625 106.9616 253.4208 15.22208434407628
SL-3 R/B                
1 13154U 82039B   26090.25733638  .00003610  00000+0  21758-3 0  9995
2 13154  81.1567 191.0928 0028457 252.8956 106.9152 15.10203787384897
SL-3 R/B                
1 13403U 82079B   26090.18914013  .00006310  00000+0  24889-3 0  9994
2 13403  81.1485 167.6916 0025484  94.1664 266.2483 15.25086770380978
SL-14 R/B               
1 13553U 82092B   26090.18290209  .00000580  00000+0  62313-4 0  9997
2 13553  82.5655 121.2923 0019172 226.8350 202.2632 14.86686077332127
SL-3 R/B                
1 13819U 83010B   26090.17444939  .00017169  00000+0  33669-3 0  9995
2 13819  81.1052 335.8952 0015755 337.2346  22.8198 15.47083831361265
SL-3 R/B                
1 14208U 83075B   26090.21315390  .00013371  00000+0  34617-3 0  9997
2 14208  97.6133  95.6136 0022494 148.3770 211.8832 15.38930649333469
COSMOS 1536             
1 14699U 84013A   26090.25648382  .00009104  00000+0  37228-3 0  9998
2 14699  82.5411  86.4008 0013655 198.8776 161.1957 15.24123625275908
SL-14 R/B               
1 14820U 84027B   26090.30830063  .00000737  00000+0  81403-4 0  9992
2 14820  82.5422 224.7358 0016489 261.1563  98.7786 14.86000124250843
SL-8 R/B                
1 15483U 85006B   26089.81972495  .00000367  00000+0  13043-3 0  9999
2 15483  74.0455 222.2648 0017602 133.9281 337.2974 14.37798599157063
SL-12 R/B(2)            
1 15772U 85042D   26090.30798973  .00000094  00000+0  63875-4 0  9999
2 15772  71.1093  42.0527 0032852  92.2715  59.5144 14.21988631117461
SL-14 R/B               
1 15945U 85069B   26090.21918292  .00000639  00000+0  69335-4 0  9990
2 15945  82.5305   4.6942 0020144 118.7356 241.5888 14.86456742176036
SL-16 R/B               
1 16182U 85097B   26090.30176681 -.00000155  00000+0 -53829-4 0  9999
2 16182  71.0007  95.0520 0009386 234.5073 136.3870 14.16603306 90294
